NORAD_CAT_ID,OBJECT_NAME,OBJECT_TYPE,EPOCH,MEAN_MOTION,ECCENTRICITY,INCLINATION,RA_OF_ASC_NODE,ARG_OF_PERICENTER,MEAN_ANOMALY,BSTAR,MEAN_MOTION_DOT,MEAN_MOTION_DDOT,TLE_LINE0,TLE_LINE1,TLE_LINE2,SEMIMAJOR_AXIS,PERIOD,APOGEE,PERIGEE,DECAYED
52568.0,STARLINK-3930,PAYLOAD,2022-11-27 09:49:57,15.08839567,0.0002407,53.2179,98.4072,51.1493,308.9714,0.00010672,1.411e-05,0.0,0 STARLINK-3930,1 52568U 22051AM  22331.40969174  .00001411  00000-0  10672-3 0  9993,2 52568  53.2179  98.4072 0002407  51.1493 308.9714 15.08839567 30682,6917.882,95.438,541.4119999999998,538.082,0.0
52568.0,STARLINK-3930,PAYLOAD,2022-11-27 16:11:30,15.08834865,0.0002273,53.2185,97.2189,49.5931,310.5259,0.00010508,1.384e-05,0.0,0 STARLINK-3930,1 52568U 22051AM  22331.67465488  .00001384  00000-0  10508-3 0  9998,2 52568  53.2185  97.2189 0002273  49.5931 310.5259 15.08834865 30795,6917.896,95.438,541.3340000000002,538.189,0.0
52568.0,STARLINK-3930,PAYLOAD,2022-11-28 08:05:22,15.08836646,0.0002529,53.2191,94.2465,50.8372,309.2844,-2.2694e-05,-6.5e-06,0.0,0 STARLINK-3930,1 52568U 22051AM  22332.33706033 -.00000650  00000-0 -22694-4 0  9993,2 52568  53.2191  94.2465 0002529  50.8372 309.2844 15.08836646 30822,6917.891,95.438,541.505,538.006,0.0
52568.0,STARLINK-3930,PAYLOAD,2022-11-29 07:56:08,15.08853057,0.0002859,53.2186,89.7882,43.4456,316.6761,-0.00019287,-3.358e-05,0.0,0 STARLINK-3930,1 52568U 22051AM  22333.33065881 -.00003358  00000-0 -19287-3 0  9994,2 52568  53.2186  89.7882 0002859  43.4456 316.6761 15.08853057 31045,6917.84,95.437,541.683,537.7280000000002,0.0
52568.0,STARLINK-3930,PAYLOAD,2022-11-29 14:17:41,15.08836332,0.0002701,53.219,88.5987,34.0855,326.0311,0.00014285,1.986e-05,0.0,0 STARLINK-3930,1 52568U 22051AM  22333.59561752  .00001986  00000-0  14285-3 0  9996,2 52568  53.2190  88.5987 0002701  34.0855 326.0311 15.08836332 31018,6917.892,95.438,541.625,537.888,0.0
52568.0,STARLINK-3930,PAYLOAD,2022-11-30 07:46:56,15.08839836,0.0002425,53.2167,85.3243,49.6214,310.499,-1.0109e-05,-4.49e-06,0.0,0 STARLINK-3930,1 52568U 22051AM  22334.32426217 -.00000449  00000-0 -10109-4 0  9991,2 52568  53.2167  85.3243 0002425  49.6214 310.4990 15.08839836 31197,6917.880999999999,95.438,541.423,538.068,0.0
52568.0,STARLINK-3930,PAYLOAD,2022-11-30 14:08:28,15.08841283,0.0002398,53.2168,84.1348,43.6367,316.4815,6.760800000000001e-05,7.88e-06,0.0,0 STARLINK-3930,1 52568U 22051AM  22334.58921910  .00000788  00000-0  67608-4 0  9999,2 52568  53.2168  84.1348 0002398  43.6367 316.4815 15.08841283 31161,6917.876,95.437,541.4,538.0830000000002,0.0
52568.0,STARLINK-3930,PAYLOAD,2022-11-30 17:19:14,15.08843872,0.0002427,53.2166,83.5403,47.3444,312.7752,2.0817e-05,4.3e-07,0.0,0 STARLINK-3930,1 52568U 22051AM  22334.72169839  .00000043  00000-0  20817-4 0  9994,2 52568  53.2166  83.5403 0002427  47.3444 312.7752 15.08843872 31181,6917.869000000002,95.437,541.413,538.055,0.0
52568.0,STARLINK-3930,PAYLOAD,2022-12-01 09:13:06,15.088427599999996,0.0002314,53.2174,80.5662,47.84,312.2788,6.9992e-05,8.26e-06,0.0,0 STARLINK-3930,1 52568U 22051AM  22335.38409864  .00000826  00000-0  69992-4 0  9998,2 52568  53.2174  80.5662 0002314  47.8400 312.2788 15.08842760 31286,6917.871999999999,95.437,541.3380000000002,538.136,0.0
52568.0,STARLINK-3930,PAYLOAD,2022-12-01 17:10:01,15.08840895,0.0002321,53.2179,79.0795,48.0376,312.0814,4.481e-05,4.25e-06,0.0,0 STARLINK-3930,1 52568U 22051AM  22335.71530048  .00000425  00000-0  44810-4 0  9991,2 52568  53.2179  79.0795 0002321  48.0376 312.0814 15.08840895 31403,6917.878000000002,95.437,541.3480000000002,538.137,0.0
52568.0,STARLINK-3930,PAYLOAD,2022-12-02 13:50:02,15.08839129,0.0002201,53.2195,75.2148,44.2971,315.8197,2.0204e-05,3.3e-07,0.0,0 STARLINK-3930,1 52568U 22051AM  22336.57642263  .00000033  00000-0  20204-4 0  9995,2 52568  53.2195  75.2148 0002201  44.2971 315.8197 15.08839129 31466,6917.8830000000025,95.438,541.271,538.225,0.0
52568.0,STARLINK-3930,PAYLOAD,2022-12-03 13:40:49,15.08844243,0.0002048,53.2202,70.7535,49.0383,311.0786,-3.4322000000000008e-06,-3.43e-06,0.0,0 STARLINK-3930,1 52568U 22051AM  22337.57001942 -.00000343  00000-0 -34322-5 0  9992,2 52568  53.2202  70.7535 0002048  49.0383 311.0786 15.08844243 31683,6917.8669999999975,95.437,541.149,538.316,0.0
52568.0,STARLINK-3930,PAYLOAD,2022-12-03 16:51:36,15.08839389,0.0002168,53.2192,70.1598,40.4799,319.6355,-1.4920999999999991e-05,-5.26e-06,0.0,0 STARLINK-3930,1 52568U 22051AM  22337.70250311 -.00000526  00000-0 -14921-4 0  9998,2 52568  53.2192  70.1598 0002168  40.4799 319.6355 15.08839389 31639,6917.882,95.438,541.247,538.247,0.0
52568.0,STARLINK-3930,PAYLOAD,2022-12-04 05:34:41,15.08837038,0.0002104,53.2192,67.781,37.8607,322.2533,4.7133e-05,4.62e-06,0.0,0 STARLINK-3930,1 52568U 22051AM  22338.23242344  .00000462  00000-0  47133-4 0  9992,2 52568  53.2192  67.7810 0002104  37.8607 322.2533 15.08837038 31789,6917.889,95.438,541.21,538.299,0.0
52568.0,STARLINK-3930,PAYLOAD,2022-12-04 11:56:14,15.08831663,0.0002556,53.2202,66.592,53.5719,306.5508,5.7898e-05,6.33e-06,0.0,0 STARLINK-3930,1 52568U 22051AM  22338.49738792  .00000633  00000-0  57898-4 0  9996,2 52568  53.2202  66.5920 0002556  53.5719 306.5508 15.08831663 31752,6917.906,95.438,541.539,538.003,0.0
52568.0,STARLINK-3930,PAYLOAD,2022-12-04 13:31:37,15.08831988,0.0002587,53.2201,66.2946,54.3422,305.7811,5.8828e-05,6.48e-06,0.0,0 STARLINK-3930,1 52568U 22051AM  22338.56362798  .00000648  00000-0  58828-4 0  9993,2 52568  53.2201  66.2946 0002587  54.3422 305.7811 15.08831988 31769,6917.905,95.438,541.56,537.98,0.0
52568.0,STARLINK-3930,PAYLOAD,2022-12-04 23:03:55,15.08844762,0.0002278,53.2203,64.5106,39.3802,320.7355,0.00010183,1.333e-05,0.0,0 STARLINK-3930,1 52568U 22051AM  22338.96105952  .00001333  00000-0  10183-3 0  9997,2 52568  53.2203  64.5106 0002278  39.3802 320.7355 15.08844762 31890,6917.866,95.437,541.307,538.155,0.0
52568.0,STARLINK-3930,PAYLOAD,2022-12-05 11:47:00,15.08847271,0.0002279,53.2202,62.132,38.9062,321.2094,6.6264e-05,7.67e-06,0.0,0 STARLINK-3930,1 52568U 22051AM  22339.49097810  .00000767  00000-0  66264-4 0  9991,2 52568  53.2202  62.1320 0002279  38.9062 321.2094 15.08847271 31901,6917.858,95.437,541.3,538.1469999999998,0.0
52568.0,STARLINK-3930,PAYLOAD,2022-12-05 18:08:32,15.08851426,0.0002279,53.219,60.941,37.8361,322.2791,8.2918e-05,1.032e-05,0.0,0 STARLINK-3930,1 52568U 22051AM  22339.75593376  .00001032  00000-0  82918-4 0  9998,2 52568  53.2190  60.9410 0002279  37.8361 322.2791 15.08851426 31949,6917.845,95.437,541.2869999999998,538.134,0.0
52568.0,STARLINK-3930,PAYLOAD,2022-12-06 05:16:14,15.08849633,0.0002369,53.2192,58.8603,36.142,323.9732,0.00011333,1.516e-05,0.0,0 STARLINK-3930,1 52568U 22051AM  22340.21961319  .00001516  00000-0  11333-3 0  9996,2 52568  53.2192  58.8603 0002369  36.1420 323.9732 15.08849633 32085,6917.851,95.437,541.355,538.077,0.0
52568.0,STARLINK-3930,PAYLOAD,2022-12-06 11:37:47,15.08841927,0.00022,53.2192,57.6703,36.8752,323.2391,0.00010552,1.392e-05,0.0,0 STARLINK-3930,1 52568U 22051AM  22340.48457848  .00001392  00000-0  10552-3 0  9996,2 52568  53.2192  57.6703 0002200  36.8752 323.2391 15.08841927 32129,6917.874,95.437,541.261,538.2180000000002,0.0
52568.0,STARLINK-3930,PAYLOAD,2022-12-07 11:28:36,15.08830999,0.0002537,53.2205,53.2132,40.2419,319.876,-7.783e-05,-1.527e-05,0.0,0 STARLINK-3930,1 52568U 22051AM  22341.47819517 -.00001527  00000-0 -77830-4 0  9996,2 52568  53.2205  53.2132 0002537  40.2419 319.8760 15.08830999 32278,6917.908,95.438,541.528,538.018,0.0
52568.0,STARLINK-3930,PAYLOAD,2022-12-07 16:14:45,15.08832798,0.0002479,53.2182,52.319,37.9698,322.1468,-5.2253e-05,-1.12e-05,0.0,0 STARLINK-3930,1 52568U 22051AM  22341.67691425 -.00001120  00000-0 -52253-4 0  9995,2 52568  53.2182  52.3190 0002479  37.9698 322.1468 15.08832798 32230,6917.901999999999,95.438,541.482,538.052,0.0
52568.0,STARLINK-3930,PAYLOAD,2022-12-08 12:54:44,15.08843555,0.0002586,53.2174,48.456,34.4587,325.6572,0.00023553,3.463e-05,0.0,0 STARLINK-3930,1 52568U 22051AM  22342.53801840  .00003463  00000-0  23553-3 0  9995,2 52568  53.2174  48.4560 0002586  34.4587 325.6572 15.08843555 32367,6917.87,95.437,541.523,537.946,0.0
52568.0,STARLINK-3930,PAYLOAD,2022-12-09 04:48:35,15.08853233,0.000245,53.2182,45.4813,35.4893,324.6261,0.00026599,3.949e-05,0.0,0 STARLINK-3930,1 52568U 22051AM  22343.20040919  .00003949  00000-0  26599-3 0  9994,2 52568  53.2182  45.4813 0002450  35.4893 324.6261 15.08853233 32532,6917.84,95.437,541.4,538.01,0.0
52568.0,STARLINK-3930,PAYLOAD,2022-12-10 04:39:25,15.08825429,0.0003686,53.2193,41.0225,353.7539,6.3407,-0.0001102,-2.042e-05,0.0,0 STARLINK-3930,1 52568U 22051AM  22344.19404336 -.00002042  00000-0 -11020-3 0  9998,2 52568  53.2193  41.0225 0003686 353.7539   6.3407 15.08825429 32686,6917.925,95.438,542.34,537.24,0.0
52568.0,STARLINK-3930,PAYLOAD,2022-12-10 11:00:57,15.08838075,0.0002454,53.2196,39.8299,39.6887,320.4284,-0.00015876,-2.814e-05,0.0,0 STARLINK-3930,1 52568U 22051AM  22344.45899611 -.00002814  00000-0 -15876-3 0  9991,2 52568  53.2196  39.8299 0002454  39.6887 320.4284 15.08838075 32722,6917.886,95.438,541.4490000000002,538.054,0.0
52568.0,STARLINK-3930,PAYLOAD,2022-12-11 10:51:44,15.08829876,0.0002433,53.2193,35.369,37.4008,322.7154,0.0002706,4.02e-05,0.0,0 STARLINK-3930,1 52568U 22051AM  22345.45259444  .00004020  00000-0  27060-3 0  9993,2 52568  53.2193  35.3690 0002433  37.4008 322.7154 15.08829876 32802,6917.911,95.438,541.4590000000002,538.0930000000002,0.0
52568.0,STARLINK-3930,PAYLOAD,2022-12-12 04:20:58,15.08840265,0.000239,53.2182,32.0972,39.3539,320.7627,0.00018601,2.673e-05,0.0,0 STARLINK-3930,1 52568U 22051AM  22346.18123436  .00002673  00000-0  18601-3 0  9998,2 52568  53.2182  32.0972 0002390  39.3539 320.7627 15.08840265 32986,6917.88,95.438,541.398,538.091,0.0
